{
  "type": "FeatureCollection",
  "features": [
    {
      "type": "Feature",
      "properties": {
        "norad_id": 64751,
        "name": "PROGRESS-MS 31",
        "group": "stations",
        "lat": 41.7427667710654,
        "lon": -179.58569437887104,
        "alt_km": 414.41832566642825,
        "timestamp": "2025-12-14T03:55:51.571549+00:00",
        "meta_object_name": "PROGRESS-MS 31",
        "meta_object_id": "2025-146A",
        "meta_epoch": "2025-12-13T02:54:59.414400",
        "meta_mean_motion": 15.49559837,
        "meta_eccentricity": 0.00032382,
        "meta_inclination": 51.6303,
        "meta_ra_of_asc_node": 140.5889,
        "meta_arg_of_pericenter": 241.9684,
        "meta_mean_anomaly": 118.0978,
        "meta_ephemeris_type": 0,
        "meta_classification_type": "U",
        "meta_norad_cat_id": 64751,
        "meta_element_set_no": 999,
        "meta_rev_at_epoch": 675,
        "meta_bstar": 0.00029450217,
        "meta_mean_motion_dot": 0.0001613,
        "meta_mean_motion_ddot": 0,
        "tle_line1": "1 64751U 25146A   25347.12152100  .00016130  00000+0  29450-3 0  9997",
        "tle_line2": "2 64751  51.6303 140.5889 0003238 241.9684 118.0978 15.49559837  6756"
      },
      "geometry": {
        "type": "Point",
        "coordinates": [
          -179.58569437887104,
          41.7427667710654
        ]
      }
    },
    {
      "type": "Feature",
      "properties": {
        "norad_id": 64786,
        "name": "TIANZHOU-9",
        "group": "stations",
        "lat": -27.870142887525795,
        "lon": -135.15523793357,
        "alt_km": 397.7456095106036,
        "timestamp": "2025-12-14T03:55:51.571559+00:00",
        "meta_object_name": "TIANZHOU-9",
        "meta_object_id": "2025-149A",
        "meta_epoch": "2025-12-13T06:59:15.159552",
        "meta_mean_motion": 15.59202655,
        "meta_eccentricity": 0.00082357,
        "meta_inclination": 41.4684,
        "meta_ra_of_asc_node": 13.3607,
        "meta_arg_of_pericenter": 35.4193,
        "meta_mean_anomaly": 324.7191,
        "meta_ephemeris_type": 0,
        "meta_classification_type": "U",
        "meta_norad_cat_id": 64786,
        "meta_element_set_no": 999,
        "meta_rev_at_epoch": 25530,
        "meta_bstar": 0.00037863929,
        "meta_mean_motion_dot": 0.00030374,
        "meta_mean_motion_ddot": 0,
        "tle_line1": "1 64786U 25149A   25347.29114768  .00030374  00000+0  37864-3 0  9998",
        "tle_line2": "2 64786  41.4684  13.3607 0008235  35.4193 324.7191 15.59202655255305"
      },
      "geometry": {
        "type": "Point",
        "coordinates": [
          -135.15523793357,
          -27.870142887525795
        ]
      }
    },
    {
      "type": "Feature",
      "properties": {
        "norad_id": 65077,
        "name": "CREW DRAGON 11",
        "group": "stations",
        "lat": 41.742767487919856,
        "lon": -179.58569293754417,
        "alt_km": 414.4183255629796,
        "timestamp": "2025-12-14T03:55:51.571569+00:00",
        "meta_object_name": "CREW DRAGON 11",
        "meta_object_id": "2025-166A",
        "meta_epoch": "2025-12-13T02:54:59.414400",
        "meta_mean_motion": 15.49559837,
        "meta_eccentricity": 0.00032382,
        "meta_inclination": 51.6303,
        "meta_ra_of_asc_node": 140.5889,
        "meta_arg_of_pericenter": 241.9684,
        "meta_mean_anomaly": 118.0978,
        "meta_ephemeris_type": 0,
        "meta_classification_type": "U",
        "meta_norad_cat_id": 65077,
        "meta_element_set_no": 999,
        "meta_rev_at_epoch": 214,
        "meta_bstar": 0.00029450217,
        "meta_mean_motion_dot": 0.0001613,
        "meta_mean_motion_ddot": 0,
        "tle_line1": "1 65077U 25166A   25347.12152100  .00016130  00000+0  29450-3 0  9991",
        "tle_line2": "2 65077  51.6303 140.5889 0003238 241.9684 118.0978 15.49559837  2147"
      },
      "geometry": {
        "type": "Point",
        "coordinates": [
          -179.58569293754417,
          41.742767487919856
        ]
      }
    },
    {
      "type": "Feature",
      "properties": {
        "norad_id": 65304,
        "name": "DRAGON CRS-33",
        "group": "stations",
        "lat": 41.74276795387467,
        "lon": -179.58569200068285,
        "alt_km": 414.41832549574247,
        "timestamp": "2025-12-14T03:55:51.571582+00:00",
        "meta_object_name": "DRAGON CRS-33",
        "meta_object_id": "2025-186A",
        "meta_epoch": "2025-12-13T02:54:59.414400",
        "meta_mean_motion": 15.49559837,
        "meta_eccentricity": 0.00032382,
        "meta_inclination": 51.6303,
        "meta_ra_of_asc_node": 140.5889,
        "meta_arg_of_pericenter": 241.9684,
        "meta_mean_anomaly": 118.0978,
        "meta_ephemeris_type": 0,
        "meta_classification_type": "U",
        "meta_norad_cat_id": 65304,
        "meta_element_set_no": 999,
        "meta_rev_at_epoch": 11,
        "meta_bstar": 0.00029450217,
        "meta_mean_motion_dot": 0.0001613,
        "meta_mean_motion_ddot": 0,
        "tle_line1": "1 65304U 25186A   25347.12152100  .00016130  00000+0  29450-3 0  9996",
        "tle_line2": "2 65304  51.6303 140.5889 0003238 241.9684 118.0978 15.49559837   115"
      },
      "geometry": {
        "type": "Point",
        "coordinates": [
          -179.58569200068285,
          41.74276795387467
        ]
      }
    },
    {
      "type": "Feature",
      "properties": {
        "norad_id": 65586,
        "name": "PROGRESS-MS 32",
        "group": "stations",
        "lat": 41.74276831230098,
        "lon": -179.58569128002122,
        "alt_km": 414.41832544401313,
        "timestamp": "2025-12-14T03:55:51.571592+00:00",
        "meta_object_name": "PROGRESS-MS 32",
        "meta_object_id": "2025-204A",
        "meta_epoch": "2025-12-13T02:54:59.414400",
        "meta_mean_motion": 15.49559837,
        "meta_eccentricity": 0.00032382,
        "meta_inclination": 51.6303,
        "meta_ra_of_asc_node": 140.5889,
        "meta_arg_of_pericenter": 241.9684,
        "meta_mean_anomaly": 118.0978,
        "meta_ephemeris_type": 0,
        "meta_classification_type": "U",
        "meta_norad_cat_id": 65586,
        "meta_element_set_no": 999,
        "meta_rev_at_epoch": 27,
        "meta_bstar": 0.00029450217,
        "meta_mean_motion_dot": 0.0001613,
        "meta_mean_motion_ddot": 0,
        "tle_line1": "1 65586U 25204A   25347.12152100  .00016130  00000+0  29450-3 0  9999",
        "tle_line2": "2 65586  51.6303 140.5889 0003238 241.9684 118.0978 15.49559837   274"
      },
      "geometry": {
        "type": "Point",
        "coordinates": [
          -179.58569128002122,
          41.74276831230098
        ]
      }
    },
    {
      "type": "Feature",
      "properties": {
        "norad_id": 65616,
        "name": "CYGNUS NG-23",
        "group": "stations",
        "lat": 41.74276874241371,
        "lon": -179.58569041522492,
        "alt_km": 414.4183253819456,
        "timestamp": "2025-12-14T03:55:51.571604+00:00",
        "meta_object_name": "CYGNUS NG-23",
        "meta_object_id": "2025-208A",
        "meta_epoch": "2025-12-13T02:54:59.414400",
        "meta_mean_motion": 15.49559837,
        "meta_eccentricity": 0.00032382,
        "meta_inclination": 51.6303,
        "meta_ra_of_asc_node": 140.5889,
        "meta_arg_of_pericenter": 241.9684,
        "meta_mean_anomaly": 118.0978,
        "meta_ephemeris_type": 0,
        "meta_classification_type": "U",
        "meta_norad_cat_id": 65616,
        "meta_element_set_no": 999,
        "meta_rev_at_epoch": 22,
        "meta_bstar": 0.00029450217,
        "meta_mean_motion_dot": 0.0001613,
        "meta_mean_motion_ddot": 0,
        "tle_line1": "1 65616U 25208A   25347.12152100  .00016130  00000+0  29450-3 0  9997",
        "tle_line2": "2 65616  51.6303 140.5889 0003238 241.9684 118.0978 15.49559837   223"
      },
      "geometry": {
        "type": "Point",
        "coordinates": [
          -179.58569041522492,
          41.74276874241371
        ]
      }
    },
    {
      "type": "Feature",
      "properties": {
        "norad_id": 65729,
        "name": "DRAGONFLY",
        "group": "stations",
        "lat": 21.159006752838692,
        "lon": -69.396040452405,
        "alt_km": 352.1819896694951,
        "timestamp": "2025-12-14T03:55:51.571615+00:00",
        "meta_object_name": "DRAGONFLY",
        "meta_object_id": "1998-067XH",
        "meta_epoch": "2025-12-12T16:11:54.021120",
        "meta_mean_motion": 15.71879709,
        "meta_eccentricity": 0.0006787,
        "meta_inclination": 51.6248,
        "meta_ra_of_asc_node": 136.0967,
        "meta_arg_of_pericenter": 276.9077,
        "meta_mean_anomaly": 83.1148,
        "meta_ephemeris_type": 0,
        "meta_classification_type": "U",
        "meta_norad_cat_id": 65729,
        "meta_element_set_no": 999,
        "meta_rev_at_epoch": 1315,
        "meta_bstar": 0.001612676,
        "meta_mean_motion_dot": 0.00219639,
        "meta_mean_motion_ddot": 0,
        "tle_line1": "1 65729U 98067XH  25346.67493080  .00219639  00000+0  16127-2 0  9994",
        "tle_line2": "2 65729  51.6248 136.0967 0006787 276.9077  83.1148 15.71879709 13154"
      },
      "geometry": {
        "type": "Point",
        "coordinates": [
          -69.396040452405,
          21.159006752838692
        ]
      }
    }
  ]
}